{
  "norad_id": 59710,
  "name": "STARLINK-11092 [DTC]",
  "history": [
    {
      "epoch": "2026-03-28T16:38:59.110944Z",
      "apogee_km": 361.128814880949,
      "perigee_km": 358.37477021588256,
      "latitude_deg": 5.0863510733385255e-05,
      "longitude_deg": 156.97992538649112,
      "height_km": 360.87438745760795,
      "semi_major_axis_km": 6737.888792548415,
      "eccentricity": 0.00020437,
      "inclination_deg": 53.1598,
      "raan_deg": 232.8367,
      "arg_perigee_deg": 98.7833,
      "mean_anomaly_deg": 261.3417,
      "mean_motion_rev_day": 15.69701249
    }
  ]
}